H1 CPF  1  HTS 2022  8 24 12  7361 larets           NONE
H2  0304206 5557    27944 2022 08 24  0  0  0 2022 08 29  0  0  0   180 1 1  0 0 0
H5  0.0560 
H9 
10 0 59817  21960.00000  0    3721747.039   -5586796.731   -2202942.643
10 0 59817  22140.00000  0    3635372.756   -5987493.148    -899469.821
10 0 59817  22320.00000  0    3408965.712   -6165972.423     436992.286
10 0 59817  22500.00000  0    3056570.862   -6111930.483    1757384.498
10 0 59817  22680.00000  0    2597060.405   -5824069.490    3013133.197
10 0 59817  22860.00000  0    2053200.300   -5310278.590    4158003.503
10 0 59817  23040.00000  0    1450559.638   -4587423.896    5149853.321
10 0 59817  23220.00000  0     816323.874   -3680759.821    5952218.318
10 0 59817  23400.00000  0     178068.945   -2622988.830    6535662.159
10 0 59817  23580.00000  0    -437441.249   -1453022.172    6878835.567
10 0 59817  23760.00000  0   -1005377.157    -214506.954    6969228.511
10 0 59817  23940.00000  0   -1503846.306    1045832.110    6803604.428
10 0 59817  24120.00000  0   -1914740.653    2279976.297    6388102.359
10 0 59817  24300.00000  0   -2224399.477    3440457.703    5738009.928
10 0 59817  24480.00000  0   -2424066.462    4482204.735    4877214.474
10 0 59817  24660.00000  0   -2510127.894    5364324.956    3837344.378
10 0 59817  24840.00000  0   -2484122.021    6051754.671    2656614.513
10 0 59817  25020.00000  0   -2352517.470    6516696.153    1378410.033
10 0 59817  25200.00000  0   -2126270.905    6739774.619      49663.185
10 0 59817  25380.00000  0   -1820185.721    6710857.564   -1280912.892
10 0 59817  25560.00000  0   -1452105.904    6429492.055   -2564663.208
10 0 59817  25740.00000  0   -1041985.162    5904923.402   -3754811.258
10 0 59817  25920.00000  0    -610890.562    5155719.139   -4808164.175
10 0 59817  26100.00000  0    -179993.218    4209035.514   -5686650.881
10 0 59817  26280.00000  0     230409.334    3099567.671   -6358642.471
10 0 59817  26460.00000  0     601795.398    1868233.351   -6800017.648
10 0 59817  26640.00000  0     918207.868     560654.774   -6994950.528
10 0 59817  26820.00000  0    1166904.910    -774505.759   -6936421.082
10 0 59817  27000.00000  0    1338852.829   -2087309.942   -6626441.852
10 0 59817  27180.00000  0    1429048.261   -3328353.157   -6076003.032
10 0 59817  27360.00000  0    1436663.683   -4450582.400   -5304743.194
10 0 59817  27540.00000  0    1365007.454   -5411074.890   -4340327.992
10 0 59817  27720.00000  0    1221299.312   -6172707.814   -3217542.581
10 0 59817  27900.00000  0    1016262.814   -6705659.037   -1977107.475
10 0 59817  28080.00000  0     763550.872   -6988662.486    -664239.876
10 0 59817  28260.00000  0     479025.058   -7009945.936     672996.744
10 0 59817  28440.00000  0     179922.714   -6767789.220    1985488.059
10 0 59817  28620.00000  0    -116044.908   -6270665.889    3224933.684
10 0 59817  28800.00000  0    -391615.993   -5536944.172    4345694.381
10 0 59817  28980.00000  0    -630873.241   -4594165.286    5306522.163
10 0 59817  29160.00000  0    -820061.005   -3477948.917    6072105.496
10 0 59817  29340.00000  0    -948283.447   -2230576.590    6614371.053
10 0 59817  29520.00000  0   -1008051.457    -899327.006    6913489.055
10 0 59817  29700.00000  0    -995657.778     465355.508    6958570.229
10 0 59817  29880.00000  0    -911366.961    1811800.513    6748041.076
10 0 59817  30060.00000  0    -759408.153    3089087.085    6289687.957
10 0 59817  30240.00000  0    -547774.391    4248987.754    5600372.447
10 0 59817  30420.00000  0    -287837.916    5247815.503    4705424.808
10 0 59817  30600.00000  0       6204.668    6048109.345    3637728.721
10 0 59817  30780.00000  0     318033.950    6620085.629    2436519.872
10 0 59817  30960.00000  0     630024.638    6942804.809    1145934.074
10 0 59817  31140.00000  0     924142.868    7004971.181    -186656.114
10 0 59817  31320.00000  0    1182873.032    6805328.880   -1512426.923
10 0 59817  31500.00000  0    1390122.185    6352639.949   -2782936.495
10 0 59817  31680.00000  0    1532055.943    5665253.938   -3951922.558
10 0 59817  31860.00000  0    1597827.852    4770296.056   -4976990.185
10 0 59817  32040.00000  0    1580167.268    3702522.277   -5821118.599
10 0 59817  32220.00000  0    1475799.849    2502912.261   -6453936.686
10 0 59817  32400.00000  0    1285685.883    1217068.201   -6852738.242
10 0 59817  32580.00000  0    1015072.402    -106509.571   -7003220.949
10 0 59817  32760.00000  0     673358.424   -1418214.985   -6899947.138
10 0 59817  32940.00000  0     273776.783   -2669141.877   -6546519.563
10 0 59817  33120.00000  0    -167096.338   -3812853.753   -5955482.309
10 0 59817  33300.00000  0    -629996.097   -4807082.837   -5147938.558
10 0 59817  33480.00000  0   -1093767.122   -5615300.882   -4152879.673
10 0 59817  33660.00000  0   -1536283.739   -6208110.052   -3006229.251
10 0 59817  33840.00000  0   -1935456.992   -6564390.328   -1749611.597
10 0 59817  34020.00000  0   -2270284.017   -6672145.279    -428873.357
10 0 59817  34200.00000  0   -2521887.888   -6528990.709     907598.780
10 0 59817  34380.00000  0   -2674492.415   -6142243.639    2210694.855
10 0 59817  34560.00000  0   -2716275.915   -5528597.891    3432449.833
10 0 59817  34740.00000  0   -2640053.680   -4713398.688    4527873.309
10 0 59817  34920.00000  0   -2443752.913   -3729558.216    5456653.718
10 0 59817  35100.00000  0   -2130658.738   -2616170.426    6184666.593
10 0 59817  35280.00000  0   -1709415.505   -1416897.608    6685225.275
10 0 59817  35460.00000  0   -1193787.968    -178210.867    6940038.941
10 0 59817  35640.00000  0    -602198.137    1052445.778    6939849.625
10 0 59817  35820.00000  0      42944.758    2228490.523    6684746.138
10 0 59817  36000.00000  0     716104.573    3305982.480    6184150.153
10 0 59817  36180.00000  0    1389635.121    4245279.517    5456473.267
10 0 59817  36360.00000  0    2034916.866    5012522.824    4528455.619
10 0 59817  36540.00000  0    2623573.539    5580893.087    3434197.474
10 0 59817  36720.00000  0    3128718.229    5931586.049    2213912.294
10 0 59817  36900.00000  0    3526172.308    6054469.639     912429.891
10 0 59817  37080.00000  0    3795589.982    5948370.817    -422492.120
10 0 59817  37260.00000  0    3921433.443    5620985.766   -1741967.303
10 0 59817  37440.00000  0    3893750.234    5088420.859   -2997812.204
10 0 59817  37620.00000  0    3708712.904    4374393.542   -4144331.690
10 0 59817  37800.00000  0    3368895.488    3509140.131   -5139977.367
10 0 59817  37980.00000  0    2883284.392    2528098.640   -5948815.927
10 0 59817  38160.00000  0    2267029.284    1470431.868   -6541762.324
10 0 59817  38340.00000  0    1540951.935     377461.548   -6897545.961
10 0 59817  38520.00000  0     730840.139    -708921.029   -7003399.969
10 0 59817  38700.00000  0    -133454.172   -1747820.011   -6855473.576
10 0 59817  38880.00000  0   -1019083.243   -2700827.523   -6458959.839
10 0 59817  39060.00000  0   -1891411.701   -3533409.175   -5827947.385
10 0 59817  39240.00000  0   -2715333.375   -4216146.162   -4984985.779
10 0 59817  39420.00000  0   -3456661.958   -4725797.347   -3960367.801
10 0 59817  39600.00000  0   -4083548.828   -5046139.214   -2791122.121
10 0 59817  39780.00000  0   -4567866.023   -5168540.560   -1519735.073
10 0 59817  39960.00000  0   -4886490.391   -5092237.971    -192631.628
10 0 59817  40140.00000  0   -5022417.560   -4824287.646    1141534.624
10 0 59817  40320.00000  0   -4965639.868   -4379184.111    2433714.802
10 0 59817  40500.00000  0   -4713731.642   -3778154.947    3636334.705
10 0 59817  40680.00000  0   -4272108.893   -3048170.278    4705108.819
10 0 59817  40860.00000  0   -3653948.032   -2220719.844    5600716.371
10 0 59817  41040.00000  0   -2879773.062   -1330427.756    6290262.914
10 0 59817  41220.00000  0   -1976737.375    -413576.138    6748485.071
10 0 59817  41400.00000  0    -977626.284     493401.375    6958653.915
10 0 59817  41580.00000  0      80367.271    1355380.529    6913152.072
10 0 59817  41760.00000  0    1157046.372    2139915.269    6613730.193
10 0 59817  41940.00000  0    2210751.704    2818468.878    6071432.669
10 0 59817  42120.00000  0    3199985.626    3367462.095    5306198.695
10 0 59817  42300.00000  0    4085066.427    3769109.168    4346147.145
10 0 59817  42480.00000  0    4829744.628    4012007.265    3226556.190
10 0 59817  42660.00000  0    5402722.236    4091459.470    1988569.231
10 0 59817  42840.00000  0    5778994.527    4009507.604     677658.736
10 0 59817  43020.00000  0    5940947.370    3774675.053    -658084.239
10 0 59817  43200.00000  0    5879150.604    3401431.628   -1969764.036
10 0 59817  43380.00000  0    5592808.386    2909411.417   -3209510.560
10 0 59817  43560.00000  0    5089851.322    2322431.237   -4332244.687
10 0 59817  43740.00000  0    4386675.226    1667362.582   -5297309.607
10 0 59817  43920.00000  0    3507543.223     972915.226   -6069899.949
10 0 59817  44100.00000  0    2483696.848     268398.897   -6622247.177
10 0 59817  44280.00000  0    1352218.173    -417485.368   -6934538.395
10 0 59817  44460.00000  0     154693.593   -1057780.185   -6995558.864
10 0 59817  44640.00000  0   -1064283.323   -1628297.956   -6803053.549
10 0 59817  44820.00000  0   -2258723.096   -2108507.196   -6363807.509
10 0 59817  45000.00000  0   -3382926.815   -2482259.415   -5693444.654
10 0 59817  45180.00000  0   -4393201.426   -2738335.371   -4815944.789
10 0 59817  45360.00000  0   -5249560.788   -2870795.590   -3762874.316
10 0 59817  45540.00000  0   -5917344.044   -2879114.523   -2572329.748
10 0 59817  45720.00000  0   -6368681.154   -2768086.916   -1287613.465
10 0 59817  45900.00000  0   -6583728.459   -2547503.290      44324.305
10 0 59817  46080.00000  0   -6551602.836   -2231602.987    1374622.585
10 0 59817  46260.00000  0   -6270953.882   -1838327.182    2654355.650
99
